[{"OBJECT_NAME":"MOZHAETS 4 (RS22)","OBJECT_ID":"2003-042A","EPOCH":"2026-03-10T00:04:00.929856","MEAN_MOTION":14.73256247,"ECCENTRICITY":0.00104743,"INCLINATION":98.344,"RA_OF_ASC_NODE":250.5725,"ARG_OF_PERICENTER":219.0556,"MEAN_ANOMALY":256.8132,"EPHEMERIS_TYPE":0,"CLASSIFICATION_TYPE":"U","NORAD_CAT_ID":27939,"ELEMENT_SET_NO":999,"REV_AT_EPOCH":20094,"BSTAR":0.00028251283,"MEAN_MOTION_DOT":1.773e-5,"MEAN_MOTION_DDOT":0},{"OBJECT_NAME":"COSMOS 1275 DEB","OBJECT_ID":"1981-053DS","EPOCH":"2026-03-09T21:51:17.753760","MEAN_MOTION":14.69129861,"ECCENTRICITY":0.00806025,"INCLINATION":82.9206,"RA_OF_ASC_NODE":32.9945,"ARG_OF_PERICENTER":176.3922,"MEAN_ANOMALY":183.7886,"EPHEMERIS_TYPE":0,"CLASSIFICATION_TYPE":"U","NORAD_CAT_ID":12773,"ELEMENT_SET_NO":999,"REV_AT_EPOCH":26237,"BSTAR":0.00366102,"MEAN_MOTION_DOT":0.0002269,"MEAN_MOTION_DDOT":0}]
